[{"OBJECT_NAME":"STARLINK-33703","OBJECT_ID":"2025-065V","EPOCH":"2026-03-09T11:17:43.132704","MEAN_MOTION":15.27589708,"ECCENTRICITY":2.808e-5,"INCLINATION":42.9979,"RA_OF_ASC_NODE":108.5017,"ARG_OF_PERICENTER":175.0836,"MEAN_ANOMALY":185.0018,"EPHEMERIS_TYPE":0,"CLASSIFICATION_TYPE":"U","NORAD_CAT_ID":63418,"ELEMENT_SET_NO":999,"REV_AT_EPOCH":5280,"BSTAR":0.0011684628,"MEAN_MOTION_DOT":0.00032041,"MEAN_MOTION_DDOT":0},{"OBJECT_NAME":"CZ-4C R\/B","OBJECT_ID":"2021-079B","EPOCH":"2026-03-09T14:04:29.438112","MEAN_MOTION":15.08928015,"ECCENTRICITY":0.0108377,"INCLINATION":98.3883,"RA_OF_ASC_NODE":282.6111,"ARG_OF_PERICENTER":26.1585,"MEAN_ANOMALY":334.506,"EPHEMERIS_TYPE":0,"CLASSIFICATION_TYPE":"U","NORAD_CAT_ID":49123,"ELEMENT_SET_NO":999,"REV_AT_EPOCH":24640,"BSTAR":0.00023549,"MEAN_MOTION_DOT":4.178e-5,"MEAN_MOTION_DDOT":0}]
